NORAD_CAT_ID,OBJECT_NAME,OBJECT_TYPE,EPOCH,MEAN_MOTION,ECCENTRICITY,INCLINATION,RA_OF_ASC_NODE,ARG_OF_PERICENTER,MEAN_ANOMALY,BSTAR,MEAN_MOTION_DOT,MEAN_MOTION_DDOT,TLE_LINE0,TLE_LINE1,TLE_LINE2,SEMIMAJOR_AXIS,PERIOD,APOGEE,PERIGEE,DECAYED
56781.0,STARLINK-5989,PAYLOAD,2023-07-09 10:11:58,15.69924356,0.000388,69.9985,303.2253,271.6594,88.4157,2.1072e-05,2.322e-05,0.0,0 STARLINK-5989,1 56781U 23078Q   23190.42497832  .00002322  00000-0  21072-4 0  9996,2 56781  69.9985 303.2253 0003880 271.6594  88.4157 15.69924356  6454,6737.25,91.724,361.729,356.501,0.0
56781.0,STARLINK-5989,PAYLOAD,2023-07-10 15:15:14,15.69934616,0.0003768,69.9981,299.821,267.8785,92.1979,4.1154e-05,4.741e-05,0.0,0 STARLINK-5989,1 56781U 23078Q   23191.63559021  .00004741  00000-0  41154-4 0  9999,2 56781  69.9981 299.8210 0003768 267.8785  92.1979 15.69934616  6642,6737.221,91.724,361.625,356.547,0.0
56781.0,STARLINK-5989,PAYLOAD,2023-07-11 00:25:45,15.69926784,0.0003748,69.998,298.7464,268.4211,91.6555,1.3484e-05,1.409e-05,0.0,0 STARLINK-5989,1 56781U 23078Q   23192.01789223  .00001409  00000-0  13484-4 0  9994,2 56781  69.9980 298.7464 0003748 268.4211  91.6555 15.69926784  6707,6737.243,91.724,361.634,356.583,0.0
56781.0,STARLINK-5989,PAYLOAD,2023-07-11 17:15:02,15.69924738,0.0003644,69.9974,296.776,268.1256,91.9522,1.4147e-06,-4.3e-07,0.0,0 STARLINK-5989,1 56781U 23078Q   23192.71877743 -.00000043  00000-0  14147-5 0  9998,2 56781  69.9974 296.7760 0003644 268.1256  91.9522 15.69924738  6814,6737.249,91.724,361.569,356.659,0.0
56781.0,STARLINK-5989,PAYLOAD,2023-07-13 15:07:36,15.6992413,0.0003038,69.9984,291.4015,262.9994,97.0857,1.4458e-05,1.526e-05,0.0,0 STARLINK-5989,1 56781U 23078Q   23194.63028097  .00001526  00000-0  14458-4 0  9991,2 56781  69.9984 291.4015 0003038 262.9994  97.0857 15.69924130  7116,6737.251,91.724,361.163,357.069,0.0
56781.0,STARLINK-5989,PAYLOAD,2023-07-14 15:35:39,15.69911384,0.0002808,69.9967,288.535,269.8022,90.2852,7.2247e-06,6.56e-06,0.0,0 STARLINK-5989,1 56781U 23078Q   23195.64975871  .00000656  00000-0  72247-5 0  9998,2 56781  69.9967 288.5350 0002808 269.8022  90.2852 15.69911384  7272,6737.288,91.725,361.044,357.261,0.0
56781.0,STARLINK-5989,PAYLOAD,2023-07-14 23:14:23,15.69922788,0.000389,69.9966,287.6392,265.8915,94.1836,1.7326e-05,1.871e-05,0.0,0 STARLINK-5989,1 56781U 23078Q   23195.96833174  .00001871  00000-0  17326-4 0  9998,2 56781  69.9966 287.6392 0003890 265.8915  94.1836 15.69922788  7327,6737.255,91.724,361.741,356.499,0.0
56781.0,STARLINK-5989,PAYLOAD,2023-07-15 16:03:40,15.69910938,0.0003661,69.9977,285.6669,268.3563,91.7213,-2.3087e-05,-2.987e-05,0.0,0 STARLINK-5989,1 56781U 23078Q   23196.66922117 -.00002987  00000-0 -23087-4 0  9994,2 56781  69.9977 285.6669 0003661 268.3563  91.7213 15.69910938  7435,6737.289,91.725,361.62,356.687,0.0
56781.0,STARLINK-5989,PAYLOAD,2023-07-15 23:42:26,15.69917644,0.0003324,69.998,284.7714,269.1954,90.8861,-4.2138e-06,-7.19e-06,0.0,0 STARLINK-5989,1 56781U 23078Q   23196.98780389 -.00000719  00000-0 -42138-5 0  9992,2 56781  69.9980 284.7714 0003324 269.1954  90.8861 15.69917644  7484,6737.27,91.725,361.374,356.895,0.0
56781.0,STARLINK-5989,PAYLOAD,2023-07-16 14:59:56,15.69934515,0.0003526,69.9978,282.9803,268.2113,91.8679,2.9582e-05,3.347e-05,0.0,0 STARLINK-5989,1 56781U 23078Q   23197.62496194  .00003347  00000-0  29582-4 0  9997,2 56781  69.9978 282.9803 0003526 268.2113  91.8679 15.69934515  7586,6737.221,91.724,361.462,356.711,0.0
56781.0,STARLINK-5989,PAYLOAD,2023-07-16 22:38:43,15.69919103,0.0002878,69.9987,282.0851,282.5465,77.5408,1.0859e-05,1.093e-05,0.0,0 STARLINK-5989,1 56781U 23078Q   23197.94355614  .00001093  00000-0  10859-4 0  9996,2 56781  69.9987 282.0851 0002878 282.5465  77.5408 15.69919103  7631,6737.265,91.724,361.069,357.191,0.0
56781.0,STARLINK-5989,PAYLOAD,2023-07-18 08:17:15,15.69926604,0.0003338,69.9974,278.1415,278.8334,81.2483,1.571e-05,1.677e-05,0.0,0 STARLINK-5989,1 56781U 23078Q   23199.34531842  .00001677  00000-0  15710-4 0  9990,2 56781  69.9974 278.1415 0003338 278.8334  81.2483 15.69926604  7857,6737.244,91.724,361.358,356.86,0.0
56781.0,STARLINK-5989,PAYLOAD,2023-07-19 08:45:18,15.69918807,0.0002776,70.0,275.2781,264.1854,95.9026,4.8417e-06,3.7e-06,0.0,0 STARLINK-5989,1 56781U 23078Q   23200.36479177  .00000370  00000-0  48417-5 0  9997,2 56781  70.0000 275.2781 0002776 264.1854  95.9026 15.69918807  8014,6737.266,91.724,361.002,357.261,0.0
56781.0,STARLINK-5989,PAYLOAD,2023-07-19 14:52:18,15.69926168,0.0002581,69.999,274.559,278.8162,81.2741,3.5827e-05,4.097e-05,0.0,0 STARLINK-5989,1 56781U 23078Q   23200.61965822  .00004097  00000-0  35827-4 0  9992,2 56781  69.9990 274.5590 0002581 278.8162  81.2741 15.69926168  8052,6737.245,91.724,360.849,357.371,0.0
56781.0,STARLINK-5989,PAYLOAD,2023-07-20 16:52:05,15.69929214,0.0003752,69.9982,271.5151,270.1254,89.9511,2.8172e-05,3.177e-05,0.0,0 STARLINK-5989,1 56781U 23078Q   23201.70283647  .00003177  00000-0  28172-4 0  9994,2 56781  69.9982 271.5151 0003752 270.1254  89.9511 15.69929214  8225,6737.237,91.724,361.629,356.574,0.0
56781.0,STARLINK-5989,PAYLOAD,2023-07-21 15:48:22,15.69925557,0.0003161,69.9972,268.827,266.9884,93.095,5.943e-06,5.02e-06,0.0,0 STARLINK-5989,1 56781U 23078Q   23202.65858878  .00000502  00000-0  59430-5 0  9994,2 56781  69.9972 268.8270 0003161 266.9884  93.0950 15.69925557  8376,6737.247,91.724,361.242,356.982,0.0
56781.0,STARLINK-5989,PAYLOAD,2023-07-24 03:26:42,15.69930221,0.0003776,69.9994,261.8407,263.2689,96.8077,3.4765e-05,3.971e-05,0.0,0 STARLINK-5989,1 56781U 23078Q   23205.14354237  .00003971  00000-0  34765-4 0  9997,2 56781  69.9994 261.8407 0003776 263.2689  96.8077 15.69930221  8500,6737.234,91.724,361.643,356.555,0.0
56781.0,STARLINK-5989,PAYLOAD,2023-07-25 11:33:29,15.69928888,0.0003703,69.9981,258.0784,272.2881,87.7891,2.7411e-05,3.085e-05,0.0,0 STARLINK-5989,1 56781U 23078Q   23206.48159542  .00003085  00000-0  27411-4 0  9993,2 56781  69.9981 258.0784 0003703 272.2881  87.7891 15.69928888  8718,6737.237,91.724,361.597,356.608,0.0
56781.0,STARLINK-5989,PAYLOAD,2023-07-26 02:51:00,15.6993048,0.0003659,69.9977,256.2879,271.2009,88.8767,1.3367e-05,1.395e-05,0.0,0 STARLINK-5989,1 56781U 23078Q   23207.11875973  .00001395  00000-0  13367-4 0  9994,2 56781  69.9977 256.2879 0003659 271.2009  88.8767 15.69930480  8815,6737.233,91.724,361.563,356.633,0.0
56781.0,STARLINK-5989,PAYLOAD,2023-07-26 05:54:31,15.6992947,0.0003483,69.9982,255.9287,271.3364,88.7433,2.5984e-05,2.913e-05,0.0,0 STARLINK-5989,1 56781U 23078Q   23207.24619416  .00002913  00000-0  25984-4 0  9991,2 56781  69.9982 255.9287 0003483 271.3364  88.7433 15.69929470  8838,6737.236,91.724,361.447,356.754,0.0
56781.0,STARLINK-5989,PAYLOAD,2023-07-27 03:19:02,15.69927759,0.0003249,69.9967,253.4175,265.9168,94.1657,-1.3275e-05,-1.809e-05,0.0,0 STARLINK-5989,1 56781U 23078Q   23208.13822746 -.00001809  00000-0 -13275-4 0  9997,2 56781  69.9967 253.4175 0003249 265.9168  94.1657 15.69927759  9233,6737.241,91.724,361.295,356.917,0.0
56781.0,STARLINK-5989,PAYLOAD,2023-07-27 09:26:03,15.6991756,0.0003362,69.9973,252.7028,269.9529,90.1281,-2.3076e-05,-2.986e-05,0.0,0 STARLINK-5989,1 56781U 23078Q   23208.39309986 -.00002986  00000-0 -23076-4 0  9998,2 56781  69.9973 252.7028 0003362 269.9529  90.1281 15.69917560  9272,6737.27,91.725,361.4,356.87,0.0
56781.0,STARLINK-5989,PAYLOAD,2023-07-27 12:29:34,15.69915463,0.0003026,69.9966,252.3458,269.7846,90.3003,-5.5947e-06,-8.85e-06,0.0,0 STARLINK-5989,1 56781U 23078Q   23208.52053993 -.00000885  00000-0 -55947-5 0  9996,2 56781  69.9966 252.3458 0003026 269.7846  90.3003 15.69915463  9032,6737.276,91.725,361.18,357.102,0.0
56781.0,STARLINK-5989,PAYLOAD,2023-07-27 20:08:19,15.6992318,0.0002814,69.9965,251.4503,269.2351,90.8522,3.8384e-06,2.49e-06,0.0,0 STARLINK-5989,1 56781U 23078Q   23208.83911733  .00000249  00000-0  38384-5 0  9993,2 56781  69.9965 251.4503 0002814 269.2351  90.8522 15.69923180  9083,6737.254,91.724,361.015,357.223,0.0
56781.0,STARLINK-5989,PAYLOAD,2023-07-28 02:15:19,15.6992647,0.0003036,69.9976,250.7359,270.2053,89.8795,9.0368e-06,8.74e-06,0.0,0 STARLINK-5989,1 56781U 23078Q   23209.09398081  .00000874  00000-0  90368-5 0  9991,2 56781  69.9976 250.7359 0003036 270.2053  89.8795 15.69926470  9382,6737.244,91.724,361.155,357.064,0.0
56781.0,STARLINK-5989,PAYLOAD,2023-07-28 05:18:50,15.69919913,0.0002787,69.9974,250.3762,262.787,97.3009,-3.6588e-06,-6.52e-06,0.0,0 STARLINK-5989,1 56781U 23078Q   23209.22142073 -.00000652  00000-0 -36588-5 0  9994,2 56781  69.9974 250.3762 0002787 262.7870  97.3009 15.69919913  9408,6737.263,91.724,361.006,357.25,0.0
56781.0,STARLINK-5989,PAYLOAD,2023-07-28 12:57:36,15.69923884,0.000284,69.9964,249.4791,265.043,95.0442,-3.4074e-07,-2.53e-06,0.0,0 STARLINK-5989,1 56781U 23078Q   23209.54000158 -.00000253  00000-0 -34074-6 0  9992,2 56781  69.9964 249.4791 0002840 265.0430  95.0442 15.69923884  9190,6737.252,91.724,361.03,357.203,0.0
56781.0,STARLINK-5989,PAYLOAD,2023-07-29 02:43:21,15.69921772,0.0003001,69.9954,247.8658,260.0178,100.0679,2.2743e-05,2.522e-05,0.0,0 STARLINK-5989,1 56781U 23078Q   23210.11344801  .00002522  00000-0  22743-4 0  9990,2 56781  69.9954 247.8658 0003001 260.0178 100.0679 15.69921772  9549,6737.258,91.724,361.145,357.101,0.0
56781.0,STARLINK-5989,PAYLOAD,2023-07-30 01:39:39,15.699168,0.0003169,69.9958,245.1797,261.5503,98.5333,1.4725e-05,1.558e-05,0.0,0 STARLINK-5989,1 56781U 23078Q   23211.06920480  .00001558  00000-0  14725-4 0  9997,2 56781  69.9958 245.1797 0003169 261.5503  98.5333 15.69916800  9691,6737.272,91.725,361.272,357.002,0.0
56781.0,STARLINK-5989,PAYLOAD,2023-07-31 02:07:40,15.69928438,0.0002989,69.9959,242.3123,259.0029,101.0831,2.0442e-05,2.246e-05,0.0,0 STARLINK-5989,1 56781U 23078Q   23212.08866309  .00002246  00000-0  20442-4 0  9997,2 56781  69.9959 242.3123 0002989 259.0029 101.0831 15.69928438  9859,6737.239,91.724,361.117,357.09,0.0
